{"type": "FeatureCollection", "features": [ {"type": "Feature", "properties": {"norad_id": 34117, "name": "COSMOS 2251 DEB", "group": "cosmos-2251-debris", "lat": 63.727139125705115, "lon": -5.906269594996967, "alt_km": 720.4459423761455, "timestamp": "2025-12-26T08:37:54.973380+00:00", "meta": {"OBJECT_NAME": "COSMOS 2251 DEB", "OBJECT_ID": "1993-036KN", "EPOCH": "2025-12-25T22:18:47.337120", "MEAN_MOTION": 14.40065603, "ECCENTRICITY": 0.0055158, "INCLINATION": 74.0405, "RA_OF_ASC_NODE": 319.458, "ARG_OF_PERICENTER": 32.1667, "MEAN_ANOMALY": 328.2833, "EPHEMERIS_TYPE": 0, "CLASSIFICATION_TYPE": "U", "NORAD_CAT_ID": 34117, "ELEMENT_SET_NO": 999, "REV_AT_EPOCH": 88313, "BSTAR": 0.00075194, "MEAN_MOTION_DOT": 2.389e-05, "MEAN_MOTION_DDOT": 0}, "tle": {"line1": "1 34117U 93036KN  25359.92971455  .00002389  00000+0  75194-3 0  9993", "line2": "2 34117  74.0405 319.4580 0055158  32.1667 328.2833 14.40065603883138"}}, "geometry": {"type": "Point", "coordinates": [-5.906269594996967, 63.727139125705115]}}, {"type": "Feature", "properties": {"norad_id": 34118, "name": "COSMOS 2251 DEB", "group": "cosmos-2251-debris", "lat": -73.92597915246203, "lon": 134.26080773344856, "alt_km": 622.1540172275027, "timestamp": "2025-12-26T08:37:54.973390+00:00", "meta": {"OBJECT_NAME": "COSMOS 2251 DEB", "OBJECT_ID": "1993-036KP", "EPOCH": "2025-12-26T01:39:33.695136", "MEAN_MOTION": 14.94366588, "ECCENTRICITY": 0.0060172, "INCLINATION": 73.9512, "RA_OF_ASC_NODE": 222.3206, "ARG_OF_PERICENTER": 49.0891, "MEAN_ANOMALY": 99.7937, "EPHEMERIS_TYPE": 0, "CLASSIFICATION_TYPE": "U", "NORAD_CAT_ID": 34118, "ELEMENT_SET_NO": 999, "REV_AT_EPOCH": 89375, "BSTAR": 0.0013757, "MEAN_MOTION_DOT": 0.0001534, "MEAN_MOTION_DDOT": 0}, "tle": {"line1": "1 34118U 93036KP  25360.06913999  .00015340  00000+0  13757-2 0  9997", "line2": "2 34118  73.9512 222.3206 0060172  49.0891  99.7937 14.94366588893750"}}, "geometry": {"type": "Point", "coordinates": [134.26080773344856, -73.92597915246203]}}, {"type": "Feature", "properties": {"norad_id": 34120, "name": "COSMOS 2251 DEB", "group": "cosmos-2251-debris", "lat": -37.71126058335867, "lon": 179.80268028786497, "alt_km": 829.7758189606684, "timestamp": "2025-12-26T08:37:54.973400+00:00", "meta": {"OBJECT_NAME": "COSMOS 2251 DEB", "OBJECT_ID": "1993-036KR", "EPOCH": "2025-12-25T21:19:40.909152", "MEAN_MOTION": 13.98697738, "ECCENTRICITY": 0.0182532, "INCLINATION": 73.9901, "RA_OF_ASC_NODE": 193.4446, "ARG_OF_PERICENTER": 18.2234, "MEAN_ANOMALY": 93.3876, "EPHEMERIS_TYPE": 0, "CLASSIFICATION_TYPE": "U", "NORAD_CAT_ID": 34120, "ELEMENT_SET_NO": 999, "REV_AT_EPOCH": 86164, "BSTAR": 0.00029319, "MEAN_MOTION_DOT": 4.62e-06, "MEAN_MOTION_DDOT": 0}, "tle": {"line1": "1 34120U 93036KR  25359.88866793  .00000462  00000+0  29319-3 0  9998", "line2": "2 34120  73.9901 193.4446 0182532  18.2234  93.3876 13.98697738861645"}}, "geometry": {"type": "Point", "coordinates": [179.80268028786497, -37.71126058335867]}}, {"type": "Feature", "properties": {"norad_id": 34121, "name": "COSMOS 2251 DEB", "group": "cosmos-2251-debris", "lat": -21.458321925584464, "lon": -99.69148874795142, "alt_km": 874.693376350614, "timestamp": "2025-12-26T08:37:54.973410+00:00", "meta": {"OBJECT_NAME": "COSMOS 2251 DEB", "OBJECT_ID": "1993-036KS", "EPOCH": "2025-12-26T04:19:10.722144", "MEAN_MOTION": 13.9197943, "ECCENTRICITY": 0.02411, "INCLINATION": 73.9924, "RA_OF_ASC_NODE": 74.1374, "ARG_OF_PERICENTER": 276.786, "MEAN_ANOMALY": 108.074, "EPHEMERIS_TYPE": 0, "CLASSIFICATION_TYPE": "U", "NORAD_CAT_ID": 34121, "ELEMENT_SET_NO": 999, "REV_AT_EPOCH": 85312, "BSTAR": 0.0012527, "MEAN_MOTION_DOT": 2.002e-05, "MEAN_MOTION_DDOT": 0}, "tle": {"line1": "1 34121U 93036KS  25360.17998521  .00002002  00000+0  12527-2 0  9992", "line2": "2 34121  73.9924  74.1374 0241100 276.7860 108.0740 13.91979430853122"}}, "geometry": {"type": "Point", "coordinates": [-99.69148874795142, -21.458321925584464]}}, {"type": "Feature", "properties": {"norad_id": 34122, "name": "COSMOS 2251 DEB", "group": "cosmos-2251-debris", "lat": 71.46175939677588, "lon": 151.0376470118597, "alt_km": 673.8966760689509, "timestamp": "2025-12-26T08:37:54.973421+00:00", "meta": {"OBJECT_NAME": "COSMOS 2251 DEB", "OBJECT_ID": "1993-036KT", "EPOCH": "2025-12-25T16:34:08.283360", "MEAN_MOTION": 14.65194212, "ECCENTRICITY": 0.00850759, "INCLINATION": 74.0361, "RA_OF_ASC_NODE": 93.7165, "ARG_OF_PERICENTER": 346.9472, "MEAN_ANOMALY": 163.709, "EPHEMERIS_TYPE": 0, "CLASSIFICATION_TYPE": "U", "NORAD_CAT_ID": 34122, "ELEMENT_SET_NO": 999, "REV_AT_EPOCH": 88874, "BSTAR": 0.00109519, "MEAN_MOTION_DOT": 6.189e-05, "MEAN_MOTION_DDOT": 0}, "tle": {"line1": "1 34122U 93036KT  25359.69037365  .00006189  00000+0  10952-2 0  9998", "line2": "2 34122  74.0361  93.7165 0085075 346.9472 163.7090 14.65194212888742"}}, "geometry": {"type": "Point", "coordinates": [151.0376470118597, 71.46175939677588]}}, {"type": "Feature", "properties": {"norad_id": 34127, "name": "COSMOS 2251 DEB", "group": "cosmos-2251-debris", "lat": 31.72401260438843, "lon": -170.84762386546396, "alt_km": 754.6588880901718, "timestamp": "2025-12-26T08:37:54.973431+00:00", "meta": {"OBJECT_NAME": "COSMOS 2251 DEB", "OBJECT_ID": "1993-036KY", "EPOCH": "2025-12-26T03:11:06.016128", "MEAN_MOTION": 14.31660585, "ECCENTRICITY": 0.0114493, "INCLINATION": 74.1802, "RA_OF_ASC_NODE": 19.657, "ARG_OF_PERICENTER": 216.8999, "MEAN_ANOMALY": 201.8533, "EPHEMERIS_TYPE": 0, "CLASSIFICATION_TYPE": "U", "NORAD_CAT_ID": 34127, "ELEMENT_SET_NO": 999, "REV_AT_EPOCH": 86963, "BSTAR": 0.0014462, "MEAN_MOTION_DOT": 4.119e-05, "MEAN_MOTION_DDOT": 0}, "tle": {"line1": "1 34127U 93036KY  25360.13270852  .00004119  00000+0  14462-2 0  9995", "line2": "2 34127  74.1802  19.6570 0114493 216.8999 201.8533 14.31660585869638"}}, "geometry": {"type": "Point", "coordinates": [-170.84762386546396, 31.72401260438843]}}, {"type": "Feature", "properties": {"norad_id": 34128, "name": "COSMOS 2251 DEB", "group": "cosmos-2251-debris", "lat": 5.3695950340975545, "lon": 87.37259927114404, "alt_km": 580.1948148994597, "timestamp": "2025-12-26T08:37:54.973441+00:00", "meta": {"OBJECT_NAME": "COSMOS 2251 DEB", "OBJECT_ID": "1993-036KZ", "EPOCH": "2025-12-25T20:58:06.002112", "MEAN_MOTION": 15.01656939, "ECCENTRICITY": 0.00259758, "INCLINATION": 73.9985, "RA_OF_ASC_NODE": 269.9103, "ARG_OF_PERICENTER": 19.1021, "MEAN_ANOMALY": 48.9677, "EPHEMERIS_TYPE": 0, "CLASSIFICATION_TYPE": "U", "NORAD_CAT_ID": 34128, "ELEMENT_SET_NO": 999, "REV_AT_EPOCH": 89364, "BSTAR": 0.0013820706, "MEAN_MOTION_DOT": 0.00018089, "MEAN_MOTION_DDOT": 0}, "tle": {"line1": "1 34128U 93036KZ  25359.87368058  .00018089  00000+0  13821-2 0  9990", "line2": "2 34128  73.9985 269.9103 0025975  19.1021  48.9677 15.01656939893649"}}, "geometry": {"type": "Point", "coordinates": [87.37259927114404, 5.3695950340975545]}}, {"type": "Feature", "properties": {"norad_id": 34129, "name": "COSMOS 2251 DEB", "group": "cosmos-2251-debris", "lat": -71.83005499347287, "lon": -107.84593893100065, "alt_km": 657.5706083546393, "timestamp": "2025-12-26T08:37:54.973451+00:00", "meta": {"OBJECT_NAME": "COSMOS 2251 DEB", "OBJECT_ID": "1993-036LA", "EPOCH": "2025-12-25T23:14:18.299040", "MEAN_MOTION": 14.75979627, "ECCENTRICITY": 0.0033565, "INCLINATION": 74.0358, "RA_OF_ASC_NODE": 313.6363, "ARG_OF_PERICENTER": 31.2725, "MEAN_ANOMALY": 329.0436, "EPHEMERIS_TYPE": 0, "CLASSIFICATION_TYPE": "U", "NORAD_CAT_ID": 34129, "ELEMENT_SET_NO": 999, "REV_AT_EPOCH": 61493, "BSTAR": 0.0015138, "MEAN_MOTION_DOT": 0.00010498, "MEAN_MOTION_DDOT": 0}, "tle": {"line1": "1 34129U 93036LA  25359.96826735  .00010498  00000+0  15138-2 0  9991", "line2": "2 34129  74.0358 313.6363 0033565  31.2725 329.0436 14.75979627614932"}}, "geometry": {"type": "Point", "coordinates": [-107.84593893100065, -71.83005499347287]}}, {"type": "Feature", "properties": {"norad_id": 34136, "name": "COSMOS 2251 DEB", "group": "cosmos-2251-debris", "lat": -69.39009590855036, "lon": -33.8708534362055, "alt_km": 686.1848126122322, "timestamp": "2025-12-26T08:37:54.973461+00:00", "meta": {"OBJECT_NAME": "COSMOS 2251 DEB", "OBJECT_ID": "1993-036LH", "EPOCH": "2025-12-26T01:01:34.800096", "MEAN_MOTION": 14.80159737, "ECCENTRICITY": 0.0084924, "INCLINATION": 74.0199, "RA_OF_ASC_NODE": 16.3936, "ARG_OF_PERICENTER": 135.693, "MEAN_ANOMALY": 259.0769, "EPHEMERIS_TYPE": 0, "CLASSIFICATION_TYPE": "U", "NORAD_CAT_ID": 34136, "ELEMENT_SET_NO": 999, "REV_AT_EPOCH": 90207, "BSTAR": 0.00035497, "MEAN_MOTION_DOT": 2.831e-05, "MEAN_MOTION_DDOT": 0}, "tle": {"line1": "1 34136U 93036LH  25360.04276389  .00002831  00000+0  35497-3 0  9997", "line2": "2 34136  74.0199  16.3936 0084924 135.6930 259.0769 14.80159737902072"}}, "geometry": {"type": "Point", "coordinates": [-33.8708534362055, -69.39009590855036]}}, {"type": "Feature", "properties": {"norad_id": 34139, "name": "COSMOS 2251 DEB", "group": "cosmos-2251-debris", "lat": 53.63288589195608, "lon": -109.01391658374531, "alt_km": 705.1413952725215, "timestamp": "2025-12-26T08:37:54.973471+00:00", "meta": {"OBJECT_NAME": "COSMOS 2251 DEB", "OBJECT_ID": "1993-036LL", "EPOCH": "2025-12-26T02:31:49.353312", "MEAN_MOTION": 14.59229708, "ECCENTRICITY": 0.0042389, "INCLINATION": 74.0296, "RA_OF_ASC_NODE": 228.5847, "ARG_OF_PERICENTER": 297.5153, "MEAN_ANOMALY": 224.0195, "EPHEMERIS_TYPE": 0, "CLASSIFICATION_TYPE": "U", "NORAD_CAT_ID": 34139, "ELEMENT_SET_NO": 999, "REV_AT_EPOCH": 88344, "BSTAR": 0.0012579, "MEAN_MOTION_DOT": 5.985e-05, "MEAN_MOTION_DDOT": 0}, "tle": {"line1": "1 34139U 93036LL  25360.10543233  .00005985  00000+0  12579-2 0  9990", "line2": "2 34139  74.0296 228.5847 0042389 297.5153 224.0195 14.59229708883441"}}, "geometry": {"type": "Point", "coordinates": [-109.01391658374531, 53.63288589195608]}}]}